[{"OBJECT_NAME":"STARLINK-4582","OBJECT_ID":"2022-101AU","EPOCH":"2026-03-09T22:43:37.484832","MEAN_MOTION":15.08867086,"ECCENTRICITY":0.00014862,"INCLINATION":53.2172,"RA_OF_ASC_NODE":52.9933,"ARG_OF_PERICENTER":80.7548,"MEAN_ANOMALY":279.3612,"EPHEMERIS_TYPE":0,"CLASSIFICATION_TYPE":"U","NORAD_CAT_ID":53569,"ELEMENT_SET_NO":999,"REV_AT_EPOCH":19715,"BSTAR":0.00020015285,"MEAN_MOTION_DOT":2.901e-5,"MEAN_MOTION_DDOT":0},{"OBJECT_NAME":"CZ-6A DEB","OBJECT_ID":"2024-140DW","EPOCH":"2026-03-09T12:42:27.831456","MEAN_MOTION":14.74987574,"ECCENTRICITY":0.01550337,"INCLINATION":88.9082,"RA_OF_ASC_NODE":275.4322,"ARG_OF_PERICENTER":135.579,"MEAN_ANOMALY":225.799,"EPHEMERIS_TYPE":0,"CLASSIFICATION_TYPE":"U","NORAD_CAT_ID":60717,"ELEMENT_SET_NO":999,"REV_AT_EPOCH":8391,"BSTAR":0.0030954876,"MEAN_MOTION_DOT":0.00025382,"MEAN_MOTION_DDOT":0}]
